ONEWEB-0320             
1 49190U 21083E   25203.54144102  .00000023  00000+0  26500-4 0  9991
2 49190  87.9120  40.9564 0001770  87.5072 272.6263 13.18685328186530
ONEWEB-0321             
1 49191U 21083F   25203.43161553  .00000031  00000+0  43507-4 0  9994
2 49191  87.9278 340.1292 0002069  88.7658 271.3713 13.20771578193308
ONEWEB-0322             
1 49192U 21083G   25204.06817971 -.00000250  00000+0 -71862-3 0  9996
2 49192  87.8963  25.6472 0002060  81.7103 278.4259 13.13468953189000
ONEWEB-0324             
1 49193U 21083H   25203.98350922  .00000076  00000+0  16058-3 0  9995
2 49193  87.9122  40.8476 0001695  83.6299 276.5026 13.18685284187891
ONEWEB-0325             
1 49194U 21083J   25204.06268503  .00000091  00000+0  19913-3 0  9999
2 49194  87.9124  40.8487 0001880  86.8039 273.3308 13.18687265187911
ONEWEB-0326             
1 49195U 21083K   25203.54651929  .00000038  00000+0  64739-4 0  9998
2 49195  87.9118  40.9413 0001647  99.6694 260.4624 13.18687292186552
ONEWEB-0327             
1 49196U 21083L   25203.62212869  .00000035  00000+0  56580-4 0  9996
2 49196  87.9116  40.9549 0001733  97.8418 262.2911 13.18686048186581
ONEWEB-0328             
1 49197U 21083M   25204.21038459 -.00000090  00000+0 -28246-3 0  9994
2 49197  87.8952  25.5597 0001663  87.4426 272.6893 13.13468629189009
